[{"OBJECT_NAME":"OBJECT A","OBJECT_ID":"2025-013A","EPOCH":"2026-03-09T23:29:31.895232","MEAN_MOTION":15.29260221,"ECCENTRICITY":0.0010321,"INCLINATION":97.6364,"RA_OF_ASC_NODE":244.5149,"ARG_OF_PERICENTER":282.3775,"MEAN_ANOMALY":77.6309,"EPHEMERIS_TYPE":0,"CLASSIFICATION_TYPE":"U","NORAD_CAT_ID":62729,"ELEMENT_SET_NO":999,"REV_AT_EPOCH":6276,"BSTAR":0.0013206527,"MEAN_MOTION_DOT":0.00037616,"MEAN_MOTION_DDOT":0},{"OBJECT_NAME":"STARLINK-35636","OBJECT_ID":"2025-240Q","EPOCH":"2026-03-09T06:57:26.020800","MEAN_MOTION":15.30193151,"ECCENTRICITY":0.00012597,"INCLINATION":53.1594,"RA_OF_ASC_NODE":64.9254,"ARG_OF_PERICENTER":85.355,"MEAN_ANOMALY":274.7594,"EPHEMERIS_TYPE":0,"CLASSIFICATION_TYPE":"U","NORAD_CAT_ID":66160,"ELEMENT_SET_NO":999,"REV_AT_EPOCH":2192,"BSTAR":0.00096814217,"MEAN_MOTION_DOT":0.00028418,"MEAN_MOTION_DDOT":0}]
